{
    "links": {
        "self": "http://www.neowsapp.com/rest/v1/neo/3392305?api_key=iIulBulltgU6a56xZRHN4H3l9WmuAYTsLGpBGhQ2"
    },
    "id": "3392305",
    "neo_reference_id": "3392305",
    "name": "(2007 VG3)",
    "designation": "2007 VG3",
    "nasa_jpl_url": "http://ssd.jpl.nasa.gov/sbdb.cgi?sstr=3392305",
    "absolute_magnitude_h": 24.6,
    "estimated_diameter": {
        "kilometers": {
            "estimated_diameter_min": 0.0319561887,
            "estimated_diameter_max": 0.0714562102
        },
        "meters": {
            "estimated_diameter_min": 31.9561886721,
            "estimated_diameter_max": 71.4562101727
        },
        "miles": {
            "estimated_diameter_min": 0.0198566489,
            "estimated_diameter_max": 0.0444008168
        },
        "feet": {
            "estimated_diameter_min": 104.8431420431,
            "estimated_diameter_max": 234.436392583
        }
    },
    "is_potentially_hazardous_asteroid": false,
    "close_approach_data": [
        {
            "close_approach_date": "2006-03-06",
            "close_approach_date_full": "2006-Mar-06 22:16",
            "epoch_date_close_approach": 1141683360000,
            "relative_velocity": {
                "kilometers_per_second": "9.7999347316",
                "kilometers_per_hour": "35279.7650337486",
                "miles_per_hour": "21921.4740011089"
            },
            "miss_distance": {
                "astronomical": "1.3616262626",
                "lunar": "529.6726161514",
                "kilometers": "203696388.621020662",
                "miles": "126571066.7107506556"
            },
            "orbiting_body": "Juptr"
        },
        {
            "close_approach_date": "2007-10-31",
            "close_approach_date_full": "2007-Oct-31 02:06",
            "epoch_date_close_approach": 1193796360000,
            "relative_velocity": {
                "kilometers_per_second": "10.9987458396",
                "kilometers_per_hour": "39595.4850226622",
                "miles_per_hour": "24603.0945686648"
            },
            "miss_distance": {
                "astronomical": "0.020877108",
                "lunar": "8.121195012",
                "kilometers": "3123170.88855996",
                "miles": "1940648.401089048"
            },
            "orbiting_body": "Earth"
        },
        {
            "close_approach_date": "2136-02-02",
            "close_approach_date_full": "2136-Feb-02 19:24",
            "epoch_date_close_approach": 5241266640000,
            "relative_velocity": {
                "kilometers_per_second": "9.2787696149",
                "kilometers_per_hour": "33403.5706137507",
                "miles_per_hour": "20755.6797516386"
            },
            "miss_distance": {
                "astronomical": "1.2363811202",
                "lunar": "480.9522557578",
                "kilometers": "184959982.090133974",
                "miles": "114928803.5513738812"
            },
            "orbiting_body": "Juptr"
        }
    ],
    "orbital_data": {
        "orbit_id": "7",
        "orbit_determination_date": "2017-04-06 09:05:26",
        "first_observation_date": "2007-11-02",
        "last_observation_date": "2007-11-06",
        "data_arc_in_days": 4,
        "observations_used": 33,
        "orbit_uncertainty": "8",
        "minimum_orbit_intersection": ".0163208",
        "jupiter_tisserand_invariant": "2.703",
        "epoch_osculation": "2454408.5",
        "eccentricity": ".6942628995418896",
        "semi_major_axis": "3.298572028009034",
        "inclination": "10.95536130787564",
        "ascending_node_longitude": "215.4383159706253",
        "orbital_period": "2188.20186884218",
        "perihelion_distance": "1.008495847495711",
        "perihelion_argument": "174.8355705887565",
        "aphelion_distance": "5.588648208522358",
        "perihelion_time": "2454399.557023471616",
        "mean_anomaly": "1.4712863543626",
        "mean_motion": ".1645186420531132",
        "equinox": "J2000",
        "orbit_class": {
            "orbit_class_type": "APO",
            "orbit_class_description": "Near-Earth asteroid orbits which cross the Earth’s orbit similar to that of 1862 Apollo",
            "orbit_class_range": "a (semi-major axis) > 1.0 AU; q (perihelion) < 1.017 AU"
        }
    },
    "is_sentry_object": false
}